[{"OBJECT_NAME":"2026-052G","OBJECT_ID":"2026-052G","EPOCH":"2026-03-21T13:59:59.902944","MEAN_MOTION":15.10608956,"ECCENTRICITY":0.0009161,"INCLINATION":97.5378,"RA_OF_ASC_NODE":156.7516,"ARG_OF_PERICENTER":244.5273,"MEAN_ANOMALY":115.5009,"EPHEMERIS_TYPE":0,"CLASSIFICATION_TYPE":"U","NORAD_CAT_ID":68204,"ELEMENT_SET_NO":999,"REV_AT_EPOCH":82,"BSTAR":0.00051680325,"MEAN_MOTION_DOT":8.486e-5,"MEAN_MOTION_DDOT":0},{"OBJECT_NAME":"KZ-11 R/B","OBJECT_ID":"2026-052H","EPOCH":"2026-03-21T14:33:44.165088","MEAN_MOTION":14.6676794,"ECCENTRICITY":0.05485797,"INCLINATION":97.3422,"RA_OF_ASC_NODE":156.648,"ARG_OF_PERICENTER":355.4396,"MEAN_ANOMALY":4.1921,"EPHEMERIS_TYPE":0,"CLASSIFICATION_TYPE":"U","NORAD_CAT_ID":68205,"ELEMENT_SET_NO":999,"REV_AT_EPOCH":80,"BSTAR":0.00067654705,"MEAN_MOTION_DOT":0.00045717,"MEAN_MOTION_DDOT":2.015935e-6},{"OBJECT_NAME":"2026-052J","OBJECT_ID":"2026-052J","EPOCH":"2026-03-21T14:33:02.698272","MEAN_MOTION":14.67103442,"ECCENTRICITY":0.05477042,"INCLINATION":97.3425,"RA_OF_ASC_NODE":156.6483,"ARG_OF_PERICENTER":355.5227,"MEAN_ANOMALY":4.1184,"EPHEMERIS_TYPE":0,"CLASSIFICATION_TYPE":"U","NORAD_CAT_ID":68206,"ELEMENT_SET_NO":999,"REV_AT_EPOCH":80,"BSTAR":0.0011958763,"MEAN_MOTION_DOT":0.00081856,"MEAN_MOTION_DDOT":2.726141e-6},{"OBJECT_NAME":"TEN-KOH 2","OBJECT_ID":"2025-241B","EPOCH":"2026-03-20T23:23:17.497248","MEAN_MOTION":15.22578809,"ECCENTRICITY":0.00044402,"INCLINATION":51.6356,"RA_OF_ASC_NODE":19.2011,"ARG_OF_PERICENTER":194.7242,"MEAN_ANOMALY":165.3606,"EPHEMERIS_TYPE":0,"CLASSIFICATION_TYPE":"U","NORAD_CAT_ID":68261,"ELEMENT_SET_NO":999,"REV_AT_EPOCH":146,"BSTAR":0.00037783443,"MEAN_MOTION_DOT":8.575e-5,"MEAN_MOTION_DDOT":0}]
