2026-052G               
1 68204U 26052G   26080.58333221  .00008486  00000+0  51680-3 0  9996
2 68204  97.5378 156.7516 0009161 244.5273 115.5009 15.10608956   828
KZ-11 R/B               
1 68205U 26052H   26080.60676117  .00045717  20159-5  67655-3 0  9994
2 68205  97.3422 156.6480 0548579 355.4396   4.1921 14.66767940   808
2026-052J               
1 68206U 26052J   26080.60628123  .00081856  27261-5  11959-2 0  9999
2 68206  97.3425 156.6483 0547704 355.5227   4.1184 14.67103442   801
TEN-KOH 2               
1 68261U 25241B   26079.97450807  .00008575  00000+0  37783-3 0  9996
2 68261  51.6356  19.2011 0004440 194.7242 165.3606 15.22578809  1461
